{
  "type": "FeatureCollection",
  "features": [
    {
      "type": "Feature",
      "geometry": {
        "type": "MultiPolygon",
        "coordinates": [
          [
            [
              [
                -47.3631046487391,
                -20.5386152846793
              ],
              [
                -47.3630369686379,
                -20.538591856952
              ],
              [
                -47.3629797008598,
                -20.5385944600328
              ],
              [
                -47.3629172269202,
                -20.5386335062451
              ],
              [
                -47.3605640418599,
                -20.5399376497353
              ],
              [
                -47.3605041710011,
                -20.5399740928668
              ],
              [
                -47.3604703309505,
                -20.5400131390791
              ],
              [
                -47.3604755371121,
                -20.5400652006954
              ],
              [
                -47.3604963617587,
                -20.540114659231
              ],
              [
                -47.3605328048901,
                -20.54014329312
              ],
              [
                -47.3605744541832,
                -20.5401589116049
              ],
              [
                -47.36144044196,
                -20.5400048757155
              ],
              [
                -47.3617744744407,
                -20.5399454589778
              ],
              [
                -47.3621336995937,
                -20.5398881911998
              ],
              [
                -47.3623028998469,
                -20.5398751757957
              ],
              [
                -47.3624044199989,
                -20.5398777788765
              ],
              [
                -47.3624981309083,
                -20.5398751757957
              ],
              [
                -47.3626126664644,
                -20.5398933973614
              ],
              [
                -47.3627402174245,
                -20.5399194281696
              ],
              [
                -47.3627844697984,
                -20.5399350466545
              ],
              [
                -47.3628235160107,
                -20.5399402528161
              ],
              [
                -47.3628417375764,
                -20.5399298404929
              ],
              [
                -47.3628677683846,
                -20.5399090158463
              ],
              [
                -47.362891196112,
                -20.5398855881189
              ],
              [
                -47.3634352400031,
                -20.5388105157408
              ],
              [
                -47.3634456523264,
                -20.5387870880134
              ],
              [
                -47.3634326369223,
                -20.5387610572052
              ],
              [
                -47.3631046487391,
                -20.5386152846793
              ]
            ]
          ]
        ]
      },
      "properties": {
        "PROTOCOLO": "17207",
        "ANO ENTRADA": 2020,
        "MUNICIPIO": "FRANCA",
        "PROPRIETARIO": "NADIA RODRIGUES ALVES MARCONDES LUZ LIMA",
        "LOCALIZAÇÃO/ENDEREÇO": "AV. ADHEMAR PEREIRA DE BARROS Nº 5061, AV.SANTA CRUZ, RUA ALBINO MARQUES E RUA SANTO ESTEFANI – CHÁCARA SANTA RITA",
        "NOME DO EMPREENDIMENTO": "SEM DENOMINAÇÃO",
        "Nº DE UNIDADES HABITACIONAIS": 24,
        "ÁREA TOTAL DA GLEBA/M²": "18910",
        "DATA DE ENTRADA": "2020-10-16T00:00:00",
        "DATA DO CERTIFICADO": "2020-12-15T00:00:00",
        "Nº DO CERTIFICADO": "404",
        "SITUAÇÃO": "CERTIFICADO"
      }
    },
    {
      "type": "Feature",
      "geometry": {
        "type": "MultiPolygon",
        "coordinates": [
          [
            [
              [
                -47.669739489167,
                -23.3117084025001
              ],
              [
                -47.668783694722,
                -23.310789898056
              ],
              [
                -47.670353885,
                -23.3100357925
              ],
              [
                -47.670392969167,
                -23.310016084444
              ],
              [
                -47.670433446389,
                -23.309998942222
              ],
              [
                -47.67047512,
                -23.309984449722
              ],
              [
                -47.670517786389,
                -23.3099726772221
              ],
              [
                -47.670561238056,
                -23.3099636825001
              ],
              [
                -47.670605263333,
                -23.309957509167
              ],
              [
                -47.6706496475,
                -23.3099541869441
              ],
              [
                -47.670694174444,
                -23.3099537325001
              ],
              [
                -47.670738627222,
                -23.309956148056
              ],
              [
                -47.670782789444,
                -23.3099614213891
              ],
              [
                -47.670826445556,
                -23.3099695272221
              ],
              [
                -47.670869383333,
                -23.3099804258331
              ],
              [
                -47.670911393333,
                -23.309994064444
              ],
              [
                -47.670952270833,
                -23.310010376389
              ],
              [
                -47.670991816944,
                -23.3100292819441
              ],
              [
                -47.671029838889,
                -23.310050689444
              ],
              [
                -47.671066151111,
                -23.310074494444
              ],
              [
                -47.671100577222,
                -23.310100580833
              ],
              [
                -47.671132949167,
                -23.310128821667
              ],
              [
                -47.671162478056,
                -23.3101584008331
              ],
              [
                -47.672749213056,
                -23.311682385
              ],
              [
                -47.672812235278,
                -23.3117376925
              ],
              [
                -47.672879281389,
                -23.3117888047221
              ],
              [
                -47.672950024444,
                -23.3118354733331
              ],
              [
                -47.673024120278,
                -23.311877470278
              ],
              [
                -47.673101207222,
                -23.3119145911111
              ],
              [
                -47.673180910278,
                -23.311946655278
              ],
              [
                -47.673262841111,
                -23.311973506111
              ],
              [
                -47.673346600278,
                -23.3119950130561
              ],
              [
                -47.673431779722,
                -23.312011071389
              ],
              [
                -47.673517964444,
                -23.312021602778
              ],
              [
                -47.673604734722,
                -23.3120265561111
              ],
              [
                -47.673691668056,
                -23.312025906667
              ],
              [
                -47.673778340278,
                -23.312019658333
              ],
              [
                -47.673824606944,
                -23.312014004722
              ],
              [
                -47.673830739167,
                -23.312013751111
              ],
              [
                -47.673836875556,
                -23.312013893333
              ],
              [
                -47.673842986389,
                -23.312014430556
              ],
              [
                -47.673849041667,
                -23.3120153600001
              ],
              [
                -47.673855011944,
                -23.3120166775001
              ],
              [
                -47.673860868056,
                -23.3120183763891
              ],
              [
                -47.673866581944,
                -23.312020448333
              ],
              [
                -47.673872125,
                -23.3120228833331
              ],
              [
                -47.673877470833,
                -23.3120256694441
              ],
              [
                -47.673882593333,
                -23.3120287933331
              ],
              [
                -47.673887467222,
                -23.312032239722
              ],
              [
                -47.673892069167,
                -23.3120359916671
              ],
              [
                -47.673896376389,
                -23.312040030833
              ],
              [
                -47.673900368056,
                -23.3120443377781
              ],
              [
                -47.673904024722,
                -23.312048891111
              ],
              [
                -47.673907328611,
                -23.312053669167
              ],
              [
                -47.673910263611,
                -23.312058648611
              ],
              [
                -47.673912815278,
                -23.3120638047221
              ],
              [
                -47.673914971111,
                -23.312069112778
              ],
              [
                -47.673916721111,
                -23.3120745469441
              ],
              [
                -47.673918056111,
                -23.312080080278
              ],
              [
                -47.673918970278,
                -23.312085686389
              ],
              [
                -47.673919458611,
                -23.312091337778
              ],
              [
                -47.673919518889,
                -23.312097006667
              ],
              [
                -47.673919150833,
                -23.312102665833
              ],
              [
                -47.673918356389,
                -23.3121082872221
              ],
              [
                -47.673917139167,
                -23.3121138441671
              ],
              [
                -47.673915505278,
                -23.3121193088891
              ],
              [
                -47.673913462778,
                -23.312124655
              ],
              [
                -47.673911352222,
                -23.3121292066671
              ],
              [
                -47.672954565278,
                -23.3141084672221
              ],
              [
                -47.672531985556,
                -23.3138772311111
              ],
              [
                -47.672183241667,
                -23.313784646389
              ],
              [
                -47.671964274444,
                -23.313807698333
              ],
              [
                -47.6718474025,
                -23.3137051136111
              ],
              [
                -47.671639186389,
                -23.3137102447221
              ],
              [
                -47.67141532,
                -23.313637643056
              ],
              [
                -47.671195348889,
                -23.3134500691671
              ],
              [
                -47.670971379444,
                -23.3133860844441
              ],
              [
                -47.670792772778,
                -23.3132672027781
              ],
              [
                -47.670574426111,
                -23.313192790278
              ],
              [
                -47.670282278333,
                -23.313056234722
              ],
              [
                -47.669983750278,
                -23.312869913333
              ],
              [
                -47.669588119167,
                -23.3125186850001
              ],
              [
                -47.669371490278,
                -23.312378839444
              ],
              [
                -47.669162839167,
                -23.312035067222
              ],
              [
                -47.669739489167,
                -23.3117084025001
              ]
            ]
          ]
        ]
      },
      "properties": {
        "PROTOCOLO": "17822",
        "ANO ENTRADA": 2021,
        "MUNICIPIO": "BOITUVA",
        "PROPRIETARIO": "TÁTIL INCORPORAÇÃO E CONSTRUÇÃO LTDA",
        "LOCALIZAÇÃO/ENDEREÇO": "AVENIDA PAU-BRASIL – BAIRRO PAU D’ALHO, OU SANTO ANTONIO OU SANTO ANTONIO VELHO, OU AINDA CAMPO DE BOITUVA",
        "NOME DO EMPREENDIMENTO": "SEM DENOMINAÇÃO",
        "Nº DE UNIDADES HABITACIONAIS": 23,
        "ÁREA TOTAL DA GLEBA/M²": "121352.85",
        "DATA DE ENTRADA": "2021-11-05T00:00:00",
        "DATA DO CERTIFICADO": "2022-11-08T00:00:00",
        "Nº DO CERTIFICADO": "375",
        "SITUAÇÃO": "CERTIFICADO"
      }
    },
    {
      "type": "Feature",
      "geometry": {
        "type": "MultiPolygon",
        "coordinates": [
          [
            [
              [
                -46.3112728182291,
                -23.4705594640077
              ],
              [
                -46.3113932922483,
                -23.4703572089694
              ],
              [
                -46.3116902472959,
                -23.4698626301236
              ],
              [
                -46.3118120952728,
                -23.4696596922302
              ],
              [
                -46.3119608121779,
                -23.4695092763836
              ],
              [
                -46.3123806798142,
                -23.4694322288932
              ],
              [
                -46.312839652472,
                -23.4693677854198
              ],
              [
                -46.3133076769914,
                -23.4694390284591
              ],
              [
                -46.3136031494956,
                -23.4696909703939
              ],
              [
                -46.313798573963,
                -23.4699152885842
              ],
              [
                -46.3139119695162,
                -23.4700454497948
              ],
              [
                -46.3140466549467,
                -23.4702127224137
              ],
              [
                -46.3141591939398,
                -23.4704295658395
              ],
              [
                -46.3142490733355,
                -23.4705782016263
              ],
              [
                -46.3144140352301,
                -23.4707633083124
              ],
              [
                -46.3138367140889,
                -23.4708067830391
              ],
              [
                -46.3144162133314,
                -23.4727159009347
              ],
              [
                -46.3141942738675,
                -23.4728620293254
              ],
              [
                -46.3139999141347,
                -23.4732578815234
              ],
              [
                -46.3130342459708,
                -23.4722353913921
              ],
              [
                -46.3123802768308,
                -23.4715429413176
              ],
              [
                -46.3112728182291,
                -23.4705594640077
              ]
            ]
          ]
        ]
      },
      "properties": {
        "PROTOCOLO": "10142",
        "ANO ENTRADA": 2010,
        "MUNICIPIO": "ITAQUAQUECETUBA",
        "PROPRIETARIO": "MICHELE LEBANI",
        "LOCALIZAÇÃO/ENDEREÇO": "ESTRADA DO CAMPO LIMPO – JARDIM LEBANI",
        "NOME DO EMPREENDIMENTO": "RESIDENCIAL JARDIM LEBANI",
        "Nº DE UNIDADES HABITACIONAIS": 3,
        "ÁREA TOTAL DA GLEBA/M²": "72634.8",
        "DATA DE ENTRADA": "2010-08-27T00:00:00",
        "DATA DO CERTIFICADO": "2011-04-19T00:00:00",
        "Nº DO CERTIFICADO": "153",
        "SITUAÇÃO": "CERTIFICADO"
      }
    },
    {
      "type": "Feature",
      "geometry": {
        "type": "MultiPolygon",
        "coordinates": [
          [
            [
              [
                -47.669739489167,
                -23.3117084025001
              ],
              [
                -47.668783694722,
                -23.310789898056
              ],
              [
                -47.670353885,
                -23.3100357925
              ],
              [
                -47.670392969167,
                -23.310016084444
              ],
              [
                -47.670433446389,
                -23.309998942222
              ],
              [
                -47.67047512,
                -23.309984449722
              ],
              [
                -47.670517786389,
                -23.3099726772221
              ],
              [
                -47.670561238056,
                -23.3099636825001
              ],
              [
                -47.670605263333,
                -23.309957509167
              ],
              [
                -47.6706496475,
                -23.3099541869441
              ],
              [
                -47.670694174444,
                -23.3099537325001
              ],
              [
                -47.670738627222,
                -23.309956148056
              ],
              [
                -47.670782789444,
                -23.3099614213891
              ],
              [
                -47.670826445556,
                -23.3099695272221
              ],
              [
                -47.670869383333,
                -23.3099804258331
              ],
              [
                -47.670911393333,
                -23.309994064444
              ],
              [
                -47.670952270833,
                -23.310010376389
              ],
              [
                -47.670991816944,
                -23.3100292819441
              ],
              [
                -47.671029838889,
                -23.310050689444
              ],
              [
                -47.671066151111,
                -23.310074494444
              ],
              [
                -47.671100577222,
                -23.310100580833
              ],
              [
                -47.671132949167,
                -23.310128821667
              ],
              [
                -47.671162478056,
                -23.3101584008331
              ],
              [
                -47.672749213056,
                -23.311682385
              ],
              [
                -47.672812235278,
                -23.3117376925
              ],
              [
                -47.672879281389,
                -23.3117888047221
              ],
              [
                -47.672950024444,
                -23.3118354733331
              ],
              [
                -47.673024120278,
                -23.311877470278
              ],
              [
                -47.673101207222,
                -23.3119145911111
              ],
              [
                -47.673180910278,
                -23.311946655278
              ],
              [
                -47.673262841111,
                -23.311973506111
              ],
              [
                -47.673346600278,
                -23.3119950130561
              ],
              [
                -47.673431779722,
                -23.312011071389
              ],
              [
                -47.673517964444,
                -23.312021602778
              ],
              [
                -47.673604734722,
                -23.3120265561111
              ],
              [
                -47.673691668056,
                -23.312025906667
              ],
              [
                -47.673778340278,
                -23.312019658333
              ],
              [
                -47.673824606944,
                -23.312014004722
              ],
              [
                -47.673830739167,
                -23.312013751111
              ],
              [
                -47.673836875556,
                -23.312013893333
              ],
              [
                -47.673842986389,
                -23.312014430556
              ],
              [
                -47.673849041667,
                -23.3120153600001
              ],
              [
                -47.673855011944,
                -23.3120166775001
              ],
              [
                -47.673860868056,
                -23.3120183763891
              ],
              [
                -47.673866581944,
                -23.312020448333
              ],
              [
                -47.673872125,
                -23.3120228833331
              ],
              [
                -47.673877470833,
                -23.3120256694441
              ],
              [
                -47.673882593333,
                -23.3120287933331
              ],
              [
                -47.673887467222,
                -23.312032239722
              ],
              [
                -47.673892069167,
                -23.3120359916671
              ],
              [
                -47.673896376389,
                -23.312040030833
              ],
              [
                -47.673900368056,
                -23.3120443377781
              ],
              [
                -47.673904024722,
                -23.312048891111
              ],
              [
                -47.673907328611,
                -23.312053669167
              ],
              [
                -47.673910263611,
                -23.312058648611
              ],
              [
                -47.673912815278,
                -23.3120638047221
              ],
              [
                -47.673914971111,
                -23.312069112778
              ],
              [
                -47.673916721111,
                -23.3120745469441
              ],
              [
                -47.673918056111,
                -23.312080080278
              ],
              [
                -47.673918970278,
                -23.312085686389
              ],
              [
                -47.673919458611,
                -23.312091337778
              ],
              [
                -47.673919518889,
                -23.312097006667
              ],
              [
                -47.673919150833,
                -23.312102665833
              ],
              [
                -47.673918356389,
                -23.3121082872221
              ],
              [
                -47.673917139167,
                -23.3121138441671
              ],
              [
                -47.673915505278,
                -23.3121193088891
              ],
              [
                -47.673913462778,
                -23.312124655
              ],
              [
                -47.673911352222,
                -23.3121292066671
              ],
              [
                -47.672954565278,
                -23.3141084672221
              ],
              [
                -47.672531985556,
                -23.3138772311111
              ],
              [
                -47.672183241667,
                -23.313784646389
              ],
              [
                -47.671964274444,
                -23.313807698333
              ],
              [
                -47.6718474025,
                -23.3137051136111
              ],
              [
                -47.671639186389,
                -23.3137102447221
              ],
              [
                -47.67141532,
                -23.313637643056
              ],
              [
                -47.671195348889,
                -23.3134500691671
              ],
              [
                -47.670971379444,
                -23.3133860844441
              ],
              [
                -47.670792772778,
                -23.3132672027781
              ],
              [
                -47.670574426111,
                -23.313192790278
              ],
              [
                -47.670282278333,
                -23.313056234722
              ],
              [
                -47.669983750278,
                -23.312869913333
              ],
              [
                -47.669588119167,
                -23.3125186850001
              ],
              [
                -47.669371490278,
                -23.312378839444
              ],
              [
                -47.669162839167,
                -23.312035067222
              ],
              [
                -47.669739489167,
                -23.3117084025001
              ]
            ]
          ]
        ]
      },
      "properties": {
        "PROTOCOLO": "17822",
        "ANO ENTRADA": 2021,
        "MUNICIPIO": "BOITUVA",
        "PROPRIETARIO": "TÁTIL INCORPORAÇÃO E CONSTRUÇÃO LTDA",
        "LOCALIZAÇÃO/ENDEREÇO": "AVENIDA PAU-BRASIL – BAIRRO PAU D’ALHO, OU SANTO ANTONIO OU SANTO ANTONIO VELHO, OU AINDA CAMPO DE BOITUVA",
        "NOME DO EMPREENDIMENTO": "SEM DENOMINAÇÃO",
        "Nº DE UNIDADES HABITACIONAIS": 23,
        "ÁREA TOTAL DA GLEBA/M²": "121352.85",
        "DATA DE ENTRADA": "2021-11-05T00:00:00",
        "DATA DO CERTIFICADO": "2022-11-08T00:00:00",
        "Nº DO CERTIFICADO": "375",
        "SITUAÇÃO": "CERTIFICADO"
      }
    },
    {
      "type": "Feature",
      "geometry": {
        "type": "MultiPolygon",
        "coordinates": [
          [
            [
              [
                -47.907579513889,
                -23.216108600556
              ],
              [
                -47.907481390278,
                -23.216033413889
              ],
              [
                -47.907467135556,
                -23.216021691944
              ],
              [
                -47.907453800278,
                -23.216009079444
              ],
              [
                -47.907441449167,
                -23.215995637778
              ],
              [
                -47.907430142778,
                -23.2159814325
              ],
              [
                -47.907419936111,
                -23.215966532778
              ],
              [
                -47.907410878611,
                -23.215951011667
              ],
              [
                -47.907403014722,
                -23.215934944167
              ],
              [
                -47.907396382778,
                -23.2159184088891
              ],
              [
                -47.907391015,
                -23.215901486111
              ],
              [
                -47.907386937222,
                -23.2158842586111
              ],
              [
                -47.907384169722,
                -23.215866810278
              ],
              [
                -47.907383548889,
                -23.2158610447221
              ],
              [
                -47.907338930278,
                -23.215392125278
              ],
              [
                -47.907338660556,
                -23.215387408056
              ],
              [
                -47.9073387475,
                -23.215382685278
              ],
              [
                -47.907339190556,
                -23.215377979167
              ],
              [
                -47.907339987778,
                -23.2153733133331
              ],
              [
                -47.907341135278,
                -23.215368710278
              ],
              [
                -47.907342627222,
                -23.2153641925
              ],
              [
                -47.907344456667,
                -23.215359781944
              ],
              [
                -47.907346614444,
                -23.2153555
              ],
              [
                -47.90734909,
                -23.2153513675
              ],
              [
                -47.907351871667,
                -23.215347404722
              ],
              [
                -47.907354945556,
                -23.215343630833
              ],
              [
                -47.907358296667,
                -23.2153400647221
              ],
              [
                -47.907361908889,
                -23.2153367230561
              ],
              [
                -47.907365764444,
                -23.215333622222
              ],
              [
                -47.907369844722,
                -23.215330777778
              ],
              [
                -47.907374129722,
                -23.215328203333
              ],
              [
                -47.907378598611,
                -23.2153259113891
              ],
              [
                -47.907383229444,
                -23.215323913333
              ],
              [
                -47.907387999722,
                -23.215322218333
              ],
              [
                -47.907392886667,
                -23.2153208352781
              ],
              [
                -47.907397865833,
                -23.215319770556
              ],
              [
                -47.907402913333,
                -23.215319029722
              ],
              [
                -47.907405150833,
                -23.215318806944
              ],
              [
                -47.907856506944,
                -23.2152803655561
              ],
              [
                -47.907861609444,
                -23.215280096667
              ],
              [
                -47.907866719722,
                -23.2152801572221
              ],
              [
                -47.907871813056,
                -23.2152805472221
              ],
              [
                -47.907876864444,
                -23.215281264444
              ],
              [
                -47.907881849444,
                -23.215282305833
              ],
              [
                -47.907886743611,
                -23.215283665833
              ],
              [
                -47.907891523333,
                -23.215285338333
              ],
              [
                -47.907896165278,
                -23.215287314722
              ],
              [
                -47.907900646667,
                -23.2152895858331
              ],
              [
                -47.907904945556,
                -23.21529214
              ],
              [
                -47.907909041389,
                -23.215294965278
              ],
              [
                -47.907912913889,
                -23.2152980477781
              ],
              [
                -47.907916544444,
                -23.2153013725
              ],
              [
                -47.907919915278,
                -23.215304923056
              ],
              [
                -47.907923009722,
                -23.2153086825
              ],
              [
                -47.907925813056,
                -23.215312631944
              ],
              [
                -47.907928311389,
                -23.215316752778
              ],
              [
                -47.907930492778,
                -23.2153210247221
              ],
              [
                -47.907932346111,
                -23.215325426667
              ],
              [
                -47.907933863056,
                -23.2153299375
              ],
              [
                -47.907935035833,
                -23.215334535
              ],
              [
                -47.907935797778,
                -23.2153387669441
              ],
              [
                -47.908055623611,
                -23.216165255278
              ],
              [
                -47.908056125,
                -23.216169956111
              ],
              [
                -47.908056270556,
                -23.216174677778
              ],
              [
                -47.908056059444,
                -23.2161793975001
              ],
              [
                -47.908055492778,
                -23.2161840919441
              ],
              [
                -47.908054573056,
                -23.216188738333
              ],
              [
                -47.908053304722,
                -23.216193314444
              ],
              [
                -47.908051694167,
                -23.2161977972221
              ],
              [
                -47.908049749444,
                -23.216202165556
              ],
              [
                -47.908047479444,
                -23.2162063977781
              ],
              [
                -47.908044895833,
                -23.216210473333
              ],
              [
                -47.908042010833,
                -23.2162143725
              ],
              [
                -47.908038838333,
                -23.2162180758331
              ],
              [
                -47.908035394444,
                -23.216221565833
              ],
              [
                -47.908031695278,
                -23.216224825278
              ],
              [
                -47.908027759167,
                -23.216227838333
              ],
              [
                -47.908023605278,
                -23.216230590278
              ],
              [
                -47.908019253889,
                -23.2162330675
              ],
              [
                -47.908014726111,
                -23.2162352583331
              ],
              [
                -47.908010043889,
                -23.216237151944
              ],
              [
                -47.908005230278,
                -23.216238739167
              ],
              [
                -47.908000308611,
                -23.216240011944
              ],
              [
                -47.907995302778,
                -23.216240964167
              ],
              [
                -47.907990237222,
                -23.216241591667
              ],
              [
                -47.907985136667,
                -23.216241890833
              ],
              [
                -47.907980026111,
                -23.216241860556
              ],
              [
                -47.907974930278,
                -23.216241500833
              ],
              [
                -47.907969873889,
                -23.216240813333
              ],
              [
                -47.907964881667,
                -23.216239801667
              ],
              [
                -47.907959978056,
                -23.216238470556
              ],
              [
                -47.907955186944,
                -23.2162368263891
              ],
              [
                -47.907950531389,
                -23.2162348775
              ],
              [
                -47.907946034444,
                -23.216232633333
              ],
              [
                -47.907941717778,
                -23.2162301044441
              ],
              [
                -47.907937602222,
                -23.216227303333
              ],
              [
                -47.907933708333,
                -23.216224243889
              ],
              [
                -47.907931661944,
                -23.216222450833
              ],
              [
                -47.907919618611,
                -23.2162122241671
              ],
              [
                -47.907906832778,
                -23.216202799167
              ],
              [
                -47.907893366667,
                -23.216194221389
              ],
              [
                -47.907879286111,
                -23.2161865325001
              ],
              [
                -47.907864659444,
                -23.216179770556
              ],
              [
                -47.907849558056,
                -23.216173967778
              ],
              [
                -47.907834055556,
                -23.216169152778
              ],
              [
                -47.9078182275,
                -23.216165349167
              ],
              [
                -47.907816351111,
                -23.2161649697221
              ],
              [
                -47.907617166111,
                -23.216125485556
              ],
              [
                -47.907611218333,
                -23.2161241041671
              ],
              [
                -47.907605388889,
                -23.216122342778
              ],
              [
                -47.907599706944,
                -23.216120209722
              ],
              [
                -47.907594199722,
                -23.216117715556
              ],
              [
                -47.907588893889,
                -23.216114872222
              ],
              [
                -47.907583815833,
                -23.216111693889
              ],
              [
                -47.907579513889,
                -23.216108600556
              ]
            ]
          ]
        ]
      },
      "properties": {
        "PROTOCOLO": "18101",
        "ANO ENTRADA": 2022,
        "MUNICIPIO": "CESARIO LANGE",
        "PROPRIETARIO": "JUPIRA – MINERAÇÃO E AGRO-PECUÁRIA S.A.",
        "LOCALIZAÇÃO/ENDEREÇO": "RUA ADRIANO PEREZ, ESQUINA COM A RUA BENEDITO HONORATO SANTANA – BAIRRO TORNINOS",
        "NOME DO EMPREENDIMENTO": "RESIDENCIAL JARDIM PILON III",
        "Nº DE UNIDADES HABITACIONAIS": 20,
        "ÁREA TOTAL DA GLEBA/M²": "5874.93",
        "DATA DE ENTRADA": "2022-05-12T00:00:00",
        "DATA DO CERTIFICADO": "2022-10-25T00:00:00",
        "Nº DO CERTIFICADO": "367",
        "SITUAÇÃO": "CERTIFICADO"
      }
    }
  ]
}